OBJECT_NAME,OBJECT_ID,EPOCH,MEAN_MOTION,ECCENTRICITY,INCLINATION,RA_OF_ASC_NODE,ARG_OF_PERICENTER,MEAN_ANOMALY,EPHEMERIS_TYPE,CLASSIFICATION_TYPE,NORAD_CAT_ID,ELEMENT_SET_NO,REV_AT_EPOCH,BSTAR,MEAN_MOTION_DOT,MEAN_MOTION_DDOT
ONEWEB-0309,2021-075W,2026-06-26T12:07:22.117440,13.17648735,.00021815,87.9131,4.0089,100.8125,259.3253,0,U,49095,999,23480,.82425808E-4,.45E-6,0
ONEWEB-0310,2021-075X,2026-06-26T11:02:51.097632,13.12442434,.00018173,87.8943,348.8353,92.8097,267.3239,0,U,49096,999,23640,.12198853E-2,.452E-5,0
ONEWEB-0311,2021-075Y,2026-06-26T10:27:43.805088,13.17650695,.00021098,87.9135,4.0224,78.8207,281.3162,0,U,49097,999,23484,.20734693E-3,.93E-6,0
ONEWEB-0312,2021-075Z,2026-06-26T10:49:35.661216,13.17649812,.00021712,87.9132,4.0299,88.8776,271.2605,0,U,49098,999,23482,-.71919376E-3,-.266E-5,0
ONEWEB-0313,2021-075AA,2026-06-26T10:56:42.017568,13.17649236,.00019633,87.9129,4.0343,86.5627,273.5729,0,U,49099,999,23481,.11625405E-3,.58E-6,0
ONEWEB-0314,2021-075AB,2026-06-26T11:57:39.461760,13.17649492,.00022491,87.9140,3.9997,87.7206,272.4183,0,U,49100,999,23479,.13885608E-3,.67E-6,0
ONEWEB-0315,2021-075AC,2026-06-26T10:23:47.787936,13.12442724,.00019217,87.8951,348.8055,80.7873,279.3473,0,U,49101,999,23638,-.13507717E-2,-.473E-5,0
ONEWEB-0316,2021-075AD,2026-06-26T11:47:53.892672,13.18690290,.00018371,87.9172,333.6044,94.7497,265.3845,0,U,49102,999,23843,-.36590764E-3,-.131E-5,0
ONEWEB-0317,2021-075AE,2026-06-26T10:28:40.646784,13.12444234,.00019064,87.8953,348.8289,114.8695,245.2632,0,U,49103,999,23640,-.89323155E-3,-.309E-5,0
ONEWEB-0318,2021-075AF,2026-06-26T11:43:04.615104,13.18689929,.00019142,87.9180,333.6065,86.8220,273.3131,0,U,49104,999,23839,-.13801997E-1,-.5426E-4,0
ONEWEB-0319,2021-075AG,2026-06-26T10:30:09.904896,13.17649720,.00020004,87.9133,4.0273,74.1699,285.9653,0,U,49105,999,23482,.20741809E-3,.93E-6,0
ONEWEB-0323,2021-075AH,2026-06-26T11:51:37.628928,13.12441171,.00021244,87.8953,348.7983,78.4168,281.7199,0,U,49106,999,23577,-.78012651E-3,-.268E-5,0
ONEWEB-0329,2021-075AJ,2026-06-26T10:42:19.153728,13.17649199,.00019992,87.9133,4.0263,87.8022,272.3338,0,U,49107,999,23480,.23481548E-3,.104E-5,0
ONEWEB-0330,2021-075AK,2026-06-26T16:00:03.000096,13.19203908,.00020881,87.9131,3.9993,93.8870,160.8810,0,U,49108,999,488,-.11408916E+0,-.45088E-3,0
ONEWEB-0292,2021-083A,2026-06-26T11:01:16.167360,13.13462589,.00017499,87.8960,318.3917,93.2594,266.8736,0,U,49186,999,23214,.35015604E-2,.1292E-4,0
ONEWEB-0303,2021-083B,2026-06-26T11:38:13.240608,13.18687584,.00018982,87.9173,333.6062,89.7023,270.4327,0,U,49187,999,23120,.29827423E-3,.131E-5,0
ONEWEB-0306,2021-083C,2026-06-26T11:23:38.596128,13.18687993,.00018772,87.9176,333.5966,101.5987,258.5356,0,U,49188,999,23124,.26876619E-3,.119E-5,0
ONEWEB-0307,2021-083D,2026-06-26T09:03:03.529152,13.13470687,.00019274,87.8960,318.4055,94.5332,265.6017,0,U,49189,999,23213,.99527052E-3,.376E-5,0
ONEWEB-0320,2021-083E,2026-06-26T11:52:47.266464,13.18686372,.00018268,87.9168,333.6097,96.3253,263.8087,0,U,49190,999,23120,.20413802E-4,.21E-6,0
ONEWEB-0321,2021-083F,2026-06-26T12:27:32.450976,13.20773306,.00020164,87.9196,272.5754,108.0048,252.1305,0,U,49191,999,23806,.2751848E-3,.125E-5,0
ONEWEB-0322,2021-083G,2026-06-26T08:56:58.480512,13.13471236,.00015501,87.8959,318.4066,109.1711,250.9586,0,U,49192,999,23212,.70834578E-3,.271E-5,0
ONEWEB-0324,2021-083H,2026-06-26T11:13:56.921088,13.18685848,.00020271,87.9179,333.6035,97.0624,263.0739,0,U,49193,999,23122,.20958325E-3,.96E-6,0
ONEWEB-0325,2021-083J,2026-06-26T11:18:48.301632,13.18686012,.00017725,87.9167,333.6101,93.1470,266.9865,0,U,49194,999,23123,-.32979903E-4,0,0
ONEWEB-0326,2021-083K,2026-06-26T11:40:51.890016,13.18685692,.00018799,87.9176,333.6057,85.9942,274.1405,0,U,49195,999,23122,.99501675E-4,.52E-6,0
ONEWEB-0327,2021-083L,2026-06-26T11:40:27.685920,13.18685384,.00017331,87.9168,333.6093,81.9233,278.2095,0,U,49196,999,23124,.96643355E-4,.51E-6,0
ONEWEB-0328,2021-083M,2026-06-26T10:32:01.763520,13.13471047,.00019858,87.8970,318.3672,98.4809,261.6545,0,U,49197,999,23211,-.21239637E-3,-.65E-6,0
ONEWEB-0331,2021-083N,2026-06-26T11:30:55.603872,13.18687272,.00019666,87.9178,333.6009,84.7062,275.4295,0,U,49198,999,23123,-.9291523E-5,.9E-7,0
ONEWEB-0333,2021-083P,2026-06-26T10:24:42.707232,13.13471252,.00018036,87.8958,318.3938,97.0845,263.0489,0,U,49199,999,23212,-.24366835E-3,-.76E-6,0
ONEWEB-0334,2021-083Q,2026-06-26T12:48:08.294112,13.20774197,.00017106,87.9194,272.5824,123.7578,236.3719,0,U,49200,999,23802,.29476138E-3,.133E-5,0
ONEWEB-0335,2021-083R,2026-06-26T10:17:23.507520,13.13471801,.00019444,87.8960,318.3919,92.6958,267.4393,0,U,49201,999,23213,-.63093221E-3,-.218E-5,0
