ONEWEB-0309             
1 49095U 21075W   26177.50511710  .00000045  00000+0  82426-4 0  9999
2 49095  87.9131   4.0089 0002181 100.8125 259.3253 13.17648735234809
ONEWEB-0310             
1 49096U 21075X   26177.46031363  .00000452  00000+0  12199-2 0  9996
2 49096  87.8943 348.8353 0001817  92.8097 267.3239 13.12442434236400
ONEWEB-0311             
1 49097U 21075Y   26177.43592367  .00000093  00000+0  20735-3 0  9997
2 49097  87.9135   4.0224 0002109  78.8207 281.3162 13.17650695234847
ONEWEB-0312             
1 49098U 21075Z   26177.45110719 -.00000266  00000+0 -71919-3 0  9991
2 49098  87.9132   4.0299 0002171  88.8776 271.2605 13.17649812234825
ONEWEB-0313             
1 49099U 21075AA  26177.45604187  .00000058  00000+0  11625-3 0  9994
2 49099  87.9129   4.0343 0001963  86.5627 273.5729 13.17649236234811
ONEWEB-0314             
1 49100U 21075AB  26177.49837340  .00000067  00000+0  13886-3 0  9991
2 49100  87.9140   3.9997 0002249  87.7206 272.4183 13.17649492234797
ONEWEB-0315             
1 49101U 21075AC  26177.43319199 -.00000473  00000+0 -13508-2 0  9996
2 49101  87.8951 348.8055 0001921  80.7873 279.3473 13.12442724236381
ONEWEB-0316             
1 49102U 21075AD  26177.49159598 -.00000131  00000+0 -36591-3 0  9997
2 49102  87.9172 333.6044 0001837  94.7497 265.3845 13.18690290238436
ONEWEB-0317             
1 49103U 21075AE  26177.43658156 -.00000309  00000+0 -89323-3 0  9994
2 49103  87.8953 348.8289 0001906 114.8695 245.2632 13.12444234236408
ONEWEB-0318             
1 49104U 21075AF  26177.48824786 -.00005426  00000+0 -13802-1 0  9996
2 49104  87.9180 333.6065 0001914  86.8220 273.3131 13.18689929238391
ONEWEB-0319             
1 49105U 21075AG  26177.43761464  .00000093  00000+0  20742-3 0  9991
2 49105  87.9133   4.0273 0002000  74.1699 285.9653 13.17649720234823
ONEWEB-0323             
1 49106U 21075AH  26177.49418552 -.00000268  00000+0 -78013-3 0  9995
2 49106  87.8953 348.7983 0002124  78.4168 281.7199 13.12441171235773
ONEWEB-0329             
1 49107U 21075AJ  26177.44605502  .00000104  00000+0  23482-3 0  9991
2 49107  87.9133   4.0263 0001999  87.8022 272.3338 13.17649199234809
ONEWEB-0330             
1 49108U 21075AK  26177.66670139 -.00045088  00000+0 -11409+0 0  9998
2 49108  87.9131   3.9993 0002088  93.8870 160.8810 13.19203908  4889
ONEWEB-0292             
1 49186U 21083A   26177.45921490  .00001292  00000+0  35016-2 0  9999
2 49186  87.8960 318.3917 0001749  93.2594 266.8736 13.13462589232145
ONEWEB-0303             
1 49187U 21083B   26177.48487547  .00000131  00000+0  29827-3 0  9998
2 49187  87.9173 333.6062 0001898  89.7023 270.4327 13.18687584231208
ONEWEB-0306             
1 49188U 21083C   26177.47475227  .00000119  00000+0  26877-3 0  9998
2 49188  87.9176 333.5966 0001877 101.5987 258.5356 13.18687993231240
ONEWEB-0307             
1 49189U 21083D   26177.37712418  .00000376  00000+0  99527-3 0  9991
2 49189  87.8960 318.4055 0001927  94.5332 265.6017 13.13470687232130
ONEWEB-0320             
1 49190U 21083E   26177.49499151  .00000021  00000+0  20414-4 0  9999
2 49190  87.9168 333.6097 0001826  96.3253 263.8087 13.18686372231207
ONEWEB-0321             
1 49191U 21083F   26177.51912559  .00000125  00000+0  27518-3 0  9991
2 49191  87.9196 272.5754 0002016 108.0048 252.1305 13.20773306238067
ONEWEB-0322             
1 49192U 21083G   26177.37289908  .00000271  00000+0  70835-3 0  9993
2 49192  87.8959 318.4066 0001550 109.1711 250.9586 13.13471236232128
ONEWEB-0324             
1 49193U 21083H   26177.46801992  .00000096  00000+0  20958-3 0  9993
2 49193  87.9179 333.6035 0002027  97.0624 263.0739 13.18685848231223
ONEWEB-0325             
1 49194U 21083J   26177.47139238  .00000000  00000+0 -32980-4 0  9997
2 49194  87.9167 333.6101 0001772  93.1470 266.9865 13.18686012231234
ONEWEB-0326             
1 49195U 21083K   26177.48671169  .00000052  00000+0  99502-4 0  9992
2 49195  87.9176 333.6057 0001879  85.9942 274.1405 13.18685692231229
ONEWEB-0327             
1 49196U 21083L   26177.48643155  .00000051  00000+0  96643-4 0  9999
2 49196  87.9168 333.6093 0001733  81.9233 278.2095 13.18685384231249
ONEWEB-0328             
1 49197U 21083M   26177.43890930 -.00000065  00000+0 -21240-3 0  9997
2 49197  87.8970 318.3672 0001985  98.4809 261.6545 13.13471047232111
ONEWEB-0331             
1 49198U 21083N   26177.47981023  .00000009  00000+0 -92915-5 0  9992
2 49198  87.9178 333.6009 0001966  84.7062 275.4295 13.18687272231236
ONEWEB-0333             
1 49199U 21083P   26177.43382763 -.00000076  00000+0 -24367-3 0  9994
2 49199  87.8958 318.3938 0001803  97.0845 263.0489 13.13471252232120
ONEWEB-0334             
1 49200U 21083Q   26177.53342933  .00000133  00000+0  29476-3 0  9991
2 49200  87.9194 272.5824 0001710 123.7578 236.3719 13.20774197238024
ONEWEB-0335             
1 49201U 21083R   26177.42874430 -.00000218  00000+0 -63093-3 0  9991
2 49201  87.8960 318.3919 0001944  92.6958 267.4393 13.13471801232131
